ELYSIUM STAR 2 & LFF    
1 43760U 18099C   24278.47304066  .00223749  00000+0  45871-2 0  9993
2 43760  97.5002 347.8005 0006016 234.2912 125.7777 15.45193743319986
